CCSDS_OMM_VERS = 2.0
CREATION_DATE  = 
ORIGINATOR     = 

OBJECT_NAME    = SOYUZ-MS 28
OBJECT_ID      = 2025-275A
CENTER_NAME    = EARTH
REF_FRAME      = TEME
TIME_SYSTEM    = UTC
MEAN_ELEMENT_THEORY = SGP/SGP4

EPOCH          = 2026-01-04T10:27:44.864352
MEAN_MOTION    = 15.49088307
ECCENTRICITY   = .0007574
INCLINATION    = 51.6325
RA_OF_ASC_NODE = 30.0969
ARG_OF_PERICENTER = 339.4846
MEAN_ANOMALY   = 20.5837

EPHEMERIS_TYPE = 0
CLASSIFICATION_TYPE = U
NORAD_CAT_ID   = 66664
ELEMENT_SET_NO = 999
REV_AT_EPOCH   = 54637
BSTAR          = .19982E-3
MEAN_MOTION_DOT = .10614E-3
MEAN_MOTION_DDOT = 0

CCSDS_OMM_VERS = 2.0
CREATION_DATE  = 
ORIGINATOR     = 

OBJECT_NAME    = 1998-067XS
OBJECT_ID      = 1998-067XS
CENTER_NAME    = EARTH
REF_FRAME      = TEME
TIME_SYSTEM    = UTC
MEAN_ELEMENT_THEORY = SGP/SGP4

EPOCH          = 2026-01-04T06:39:33.966144
MEAN_MOTION    = 15.51933094
ECCENTRICITY   = .0002479
INCLINATION    = 51.6319
RA_OF_ASC_NODE = 30.5400
ARG_OF_PERICENTER = 321.4980
MEAN_ANOMALY   = 38.5833

EPHEMERIS_TYPE = 0
CLASSIFICATION_TYPE = U
NORAD_CAT_ID   = 66906
ELEMENT_SET_NO = 999
REV_AT_EPOCH   = 511
BSTAR          = .44018E-3
MEAN_MOTION_DOT = .26537E-3
MEAN_MOTION_DDOT = 0

CCSDS_OMM_VERS = 2.0
CREATION_DATE  = 
ORIGINATOR     = 

OBJECT_NAME    = 1998-067XT
OBJECT_ID      = 1998-067XT
CENTER_NAME    = EARTH
REF_FRAME      = TEME
TIME_SYSTEM    = UTC
MEAN_ELEMENT_THEORY = SGP/SGP4

EPOCH          = 2026-01-04T05:59:24.295200
MEAN_MOTION    = 15.54802766
ECCENTRICITY   = .0003955
INCLINATION    = 51.6312
RA_OF_ASC_NODE = 30.3541
ARG_OF_PERICENTER = 4.3130
MEAN_ANOMALY   = 355.7894

EPHEMERIS_TYPE = 0
CLASSIFICATION_TYPE = U
NORAD_CAT_ID   = 66907
ELEMENT_SET_NO = 999
REV_AT_EPOCH   = 511
BSTAR          = .11247E-2
MEAN_MOTION_DOT = .76582E-3
MEAN_MOTION_DDOT = 0

CCSDS_OMM_VERS = 2.0
CREATION_DATE  = 
ORIGINATOR     = 

OBJECT_NAME    = 1998-067XU
OBJECT_ID      = 1998-067XU
CENTER_NAME    = EARTH
REF_FRAME      = TEME
TIME_SYSTEM    = UTC
MEAN_ELEMENT_THEORY = SGP/SGP4

EPOCH          = 2026-01-04T07:30:26.205984
MEAN_MOTION    = 15.54794755
ECCENTRICITY   = .0003885
INCLINATION    = 51.6309
RA_OF_ASC_NODE = 30.0253
ARG_OF_PERICENTER = 1.5182
MEAN_ANOMALY   = 358.5819

EPHEMERIS_TYPE = 0
CLASSIFICATION_TYPE = U
NORAD_CAT_ID   = 66908
ELEMENT_SET_NO = 999
REV_AT_EPOCH   = 512
BSTAR          = .11949E-2
MEAN_MOTION_DOT = .81416E-3
MEAN_MOTION_DDOT = 0

CCSDS_OMM_VERS = 2.0
CREATION_DATE  = 
ORIGINATOR     = 

OBJECT_NAME    = SILVERSAT
OBJECT_ID      = 1998-067XV
CENTER_NAME    = EARTH
REF_FRAME      = TEME
TIME_SYSTEM    = UTC
MEAN_ELEMENT_THEORY = SGP/SGP4

EPOCH          = 2026-01-04T10:29:15.936000
MEAN_MOTION    = 15.55345299
ECCENTRICITY   = .0003993
INCLINATION    = 51.6312
RA_OF_ASC_NODE = 29.3551
ARG_OF_PERICENTER = 10.2921
MEAN_ANOMALY   = 349.8151

EPHEMERIS_TYPE = 0
CLASSIFICATION_TYPE = U
NORAD_CAT_ID   = 66909
ELEMENT_SET_NO = 999
REV_AT_EPOCH   = 514
BSTAR          = .12537E-2
MEAN_MOTION_DOT = .87269E-3
MEAN_MOTION_DDOT = 0

CCSDS_OMM_VERS = 2.0
CREATION_DATE  = 
ORIGINATOR     = 

OBJECT_NAME    = 1998-067XW
OBJECT_ID      = 1998-067XW
CENTER_NAME    = EARTH
REF_FRAME      = TEME
TIME_SYSTEM    = UTC
MEAN_ELEMENT_THEORY = SGP/SGP4

EPOCH          = 2026-01-04T10:28:26.466816
MEAN_MOTION    = 15.55100222
ECCENTRICITY   = .0003098
INCLINATION    = 51.6300
RA_OF_ASC_NODE = 29.3498
ARG_OF_PERICENTER = 343.2651
MEAN_ANOMALY   = 16.8237

EPHEMERIS_TYPE = 0
CLASSIFICATION_TYPE = U
NORAD_CAT_ID   = 66910
ELEMENT_SET_NO = 999
REV_AT_EPOCH   = 514
BSTAR          = .11864E-2
MEAN_MOTION_DOT = .81743E-3
MEAN_MOTION_DDOT = 0

CCSDS_OMM_VERS = 2.0
CREATION_DATE  = 
ORIGINATOR     = 

OBJECT_NAME    = 1998-067XX
OBJECT_ID      = 1998-067XX
CENTER_NAME    = EARTH
REF_FRAME      = TEME
TIME_SYSTEM    = UTC
MEAN_ELEMENT_THEORY = SGP/SGP4

EPOCH          = 2026-01-04T08:43:45.630048
MEAN_MOTION    = 15.55963050
ECCENTRICITY   = .000306
INCLINATION    = 51.6307
RA_OF_ASC_NODE = 29.6157
ARG_OF_PERICENTER = 357.0626
MEAN_ANOMALY   = 3.0347

EPHEMERIS_TYPE = 0
CLASSIFICATION_TYPE = U
NORAD_CAT_ID   = 66911
ELEMENT_SET_NO = 999
REV_AT_EPOCH   = 512
BSTAR          = .1323E-2
MEAN_MOTION_DOT = .94322E-3
MEAN_MOTION_DDOT = 0

CCSDS_OMM_VERS = 2.0
CREATION_DATE  = 
ORIGINATOR     = 

OBJECT_NAME    = 1998-067XY
OBJECT_ID      = 1998-067XY
CENTER_NAME    = EARTH
REF_FRAME      = TEME
TIME_SYSTEM    = UTC
MEAN_ELEMENT_THEORY = SGP/SGP4

EPOCH          = 2026-01-04T10:51:53.306784
MEAN_MOTION    = 15.53775698
ECCENTRICITY   = .0003724
INCLINATION    = 51.6318
RA_OF_ASC_NODE = 29.4600
ARG_OF_PERICENTER = 352.6655
MEAN_ANOMALY   = 7.4280

EPHEMERIS_TYPE = 0
CLASSIFICATION_TYPE = U
NORAD_CAT_ID   = 66912
ELEMENT_SET_NO = 999
REV_AT_EPOCH   = 513
BSTAR          = .91944E-3
MEAN_MOTION_DOT = .60075E-3
MEAN_MOTION_DDOT = 0

